{
  "norad_id": 68527,
  "name": "STARLINK-37248",
  "history": [
    {
      "epoch": "2026-05-03T15:42:28.780128Z",
      "apogee_km": 328.35143407167016,
      "perigee_km": 327.03306804091244,
      "latitude_deg": 2.5809783606613455e-05,
      "longitude_deg": 136.52032103238193,
      "height_km": 328.3577880486766,
      "semi_major_axis_km": 6705.829251056291,
      "eccentricity": 9.83e-05,
      "inclination_deg": 53.1561,
      "raan_deg": 233.6953,
      "arg_perigee_deg": 67.4959,
      "mean_anomaly_deg": 292.6168,
      "mean_motion_rev_day": 15.80971444
    },
    {
      "epoch": "2026-05-04T12:56:59.277408Z",
      "apogee_km": 328.22064231321656,
      "perigee_km": 327.2053766217823,
      "latitude_deg": -3.102829805849322e-05,
      "longitude_deg": 172.586633792473,
      "height_km": 328.47875580764315,
      "semi_major_axis_km": 6705.850009467499,
      "eccentricity": 7.57e-05,
      "inclination_deg": 53.1561,
      "raan_deg": 229.2611,
      "arg_perigee_deg": 72.5366,
      "mean_anomaly_deg": 287.5739,
      "mean_motion_rev_day": 15.80964103
    },
    {
      "epoch": "2026-05-05T17:46:49.344096Z",
      "apogee_km": 330.2026335727396,
      "perigee_km": 329.71965050651306,
      "latitude_deg": 6.276991699631075e-05,
      "longitude_deg": 92.9231583733077,
      "height_km": 331.11089988842286,
      "semi_major_axis_km": 6708.0981420396265,
      "eccentricity": 3.6e-05,
      "inclination_deg": 53.1551,
      "raan_deg": 223.2402,
      "arg_perigee_deg": 163.3235,
      "mean_anomaly_deg": 196.78,
      "mean_motion_rev_day": 15.8016941
    },
    {
      "epoch": "2026-05-06T20:00:01.999008Z",
      "apogee_km": 344.7163677385015,
      "perigee_km": 343.0493068188571,
      "latitude_deg": 53.2403990079567,
      "longitude_deg": 138.93572746998098,
      "height_km": 349.75662876958313,
      "semi_major_axis_km": 6722.019837278679,
      "eccentricity": 0.000124,
      "inclination_deg": 53.1581,
      "raan_deg": 217.7953,
      "arg_perigee_deg": 50.0311,
      "mean_anomaly_deg": 37.4642,
      "mean_motion_rev_day": 15.75263018
    },
    {
      "epoch": "2026-05-07T20:00:01.999008Z",
      "apogee_km": 357.22778420835857,
      "perigee_km": 356.1286623639189,
      "latitude_deg": -5.316140305531141,
      "longitude_deg": 43.18382962374388,
      "height_km": 358.24916703385435,
      "semi_major_axis_km": 6734.8152232861385,
      "eccentricity": 8.16e-05,
      "inclination_deg": 53.1595,
      "raan_deg": 212.8412,
      "arg_perigee_deg": 63.5481,
      "mean_anomaly_deg": 289.9551,
      "mean_motion_rev_day": 15.70775919
    },
    {
      "epoch": "2026-05-08T20:00:01.999008Z",
      "apogee_km": 370.6703367378459,
      "perigee_km": 369.07105891346146,
      "latitude_deg": -45.84800354796477,
      "longitude_deg": -88.62545319320398,
      "height_km": 386.20552419998427,
      "semi_major_axis_km": 6748.007697825654,
      "eccentricity": 0.0001185,
      "inclination_deg": 53.1588,
      "raan_deg": 207.9202,
      "arg_perigee_deg": 78.6807,
      "mean_anomaly_deg": 164.6475,
      "mean_motion_rev_day": 15.66171829
    },
    {
      "epoch": "2026-05-09T20:00:04.000032Z",
      "apogee_km": 384.9450230704688,
      "perigee_km": 383.4870597547397,
      "latitude_deg": 46.20419992573865,
      "longitude_deg": 164.38657194957653,
      "height_km": 388.90329131694585,
      "semi_major_axis_km": 6762.3530414126035,
      "eccentricity": 0.0001078,
      "inclination_deg": 53.1597,
      "raan_deg": 203.0349,
      "arg_perigee_deg": 46.5985,
      "mean_anomaly_deg": 69.2687,
      "mean_motion_rev_day": 15.61190866
    },
    {
      "epoch": "2026-05-10T20:00:01.999008Z",
      "apogee_km": 399.4900505399946,
      "perigee_km": 398.1441474559324,
      "latitude_deg": -23.66295508555237,
      "longitude_deg": 10.491738678778065,
      "height_km": 405.8224331276983,
      "semi_major_axis_km": 6776.954098997963,
      "eccentricity": 9.93e-05,
      "inclination_deg": 53.1599,
      "raan_deg": 198.1851,
      "arg_perigee_deg": 77.8613,
      "mean_anomaly_deg": 252.3088,
      "mean_motion_rev_day": 15.56148168
    },
    {
      "epoch": "2026-05-11T20:00:01.999008Z",
      "apogee_km": 416.1262392207018,
      "perigee_km": 414.1847162305685,
      "latitude_deg": 11.278314953629396,
      "longitude_deg": -164.7957267561461,
      "height_km": 415.83227028443883,
      "semi_major_axis_km": 6793.292477725635,
      "eccentricity": 0.0001429,
      "inclination_deg": 53.1596,
      "raan_deg": 193.3736,
      "arg_perigee_deg": 42.4922,
      "mean_anomaly_deg": 123.337,
      "mean_motion_rev_day": 15.50537565
    },
    {
      "epoch": "2026-05-12T20:00:01.999008Z",
      "apogee_km": 419.6692363910279,
      "perigee_km": 417.78378645296016,
      "latitude_deg": -10.38469728587588,
      "longitude_deg": 10.133986179911986,
      "height_km": 421.24440361614603,
      "semi_major_axis_km": 6796.863511421994,
      "eccentricity": 0.0001387,
      "inclination_deg": 53.16,
      "raan_deg": 188.5916,
      "arg_perigee_deg": 57.6512,
      "mean_anomaly_deg": 289.5246,
      "mean_motion_rev_day": 15.4931576
    },
    {
      "epoch": "2026-05-13T20:00:01.999008Z",
      "apogee_km": 418.26946610283267,
      "perigee_km": 415.66558204920693,
      "latitude_deg": 9.704354256035298,
      "longitude_deg": -175.10495431300657,
      "height_km": 417.129913165256,
      "semi_major_axis_km": 6795.1045240760195,
      "eccentricity": 0.0001916,
      "inclination_deg": 53.1637,
      "raan_deg": 183.8099,
      "arg_perigee_deg": 78.0079,
      "mean_anomaly_deg": 89.7872,
      "mean_motion_rev_day": 15.49917385
    },
    {
      "epoch": "2026-05-14T06:00:02.000160Z",
      "apogee_km": 423.90062570716145,
      "perigee_km": 422.1330058304429,
      "latitude_deg": -21.925721953268145,
      "longitude_deg": -157.6386187210385,
      "height_km": 429.7863319552599,
      "semi_major_axis_km": 6801.153815768802,
      "eccentricity": 0.00012995,
      "inclination_deg": 53.1598,
      "raan_deg": 181.819,
      "arg_perigee_deg": 102.5658,
      "mean_anomaly_deg": 229.8819,
      "mean_motion_rev_day": 15.47849982
    },
    {
      "epoch": "2026-05-15T06:00:02.000160Z",
      "apogee_km": 439.42510002238123,
      "perigee_km": 437.42198554127845,
      "latitude_deg": 32.582789641819886,
      "longitude_deg": 5.6416193055752215,
      "height_km": 439.72859045154956,
      "semi_major_axis_km": 6816.560542781829,
      "eccentricity": 0.00014693,
      "inclination_deg": 53.1595,
      "raan_deg": 177.0687,
      "arg_perigee_deg": 103.7945,
      "mean_anomaly_deg": 34.0541,
      "mean_motion_rev_day": 15.42605294
    },
    {
      "epoch": "2026-05-16T20:00:01.999008Z",
      "apogee_km": 463.48973617589854,
      "perigee_km": 462.2528818736264,
      "latitude_deg": -53.31057746290455,
      "longitude_deg": -95.3625447719458,
      "height_km": 481.94896743610354,
      "semi_major_axis_km": 6841.008309024763,
      "eccentricity": 9.04e-05,
      "inclination_deg": 53.1592,
      "raan_deg": 169.6241,
      "arg_perigee_deg": 59.8488,
      "mean_anomaly_deg": 209.8958,
      "mean_motion_rev_day": 15.34343455
    }
  ]
}